[{"OBJECT_NAME":"ION SCV-013","OBJECT_ID":"2023-174AW","EPOCH":"2026-03-09T22:59:29.755392","MEAN_MOTION":15.04632564,"ECCENTRICITY":0.00998876,"INCLINATION":97.6297,"RA_OF_ASC_NODE":125.3193,"ARG_OF_PERICENTER":172.5348,"MEAN_ANOMALY":187.7394,"EPHEMERIS_TYPE":0,"CLASSIFICATION_TYPE":"U","NORAD_CAT_ID":58300,"ELEMENT_SET_NO":999,"REV_AT_EPOCH":12661,"BSTAR":0.00023880169,"MEAN_MOTION_DOT":3.68e-5,"MEAN_MOTION_DDOT":0},{"OBJECT_NAME":"STARLINK-35997","OBJECT_ID":"2025-280Y","EPOCH":"2026-03-09T22:21:26.676864","MEAN_MOTION":14.98330654,"ECCENTRICITY":0.00019646,"INCLINATION":70.0036,"RA_OF_ASC_NODE":333.7811,"ARG_OF_PERICENTER":266.2728,"MEAN_ANOMALY":93.8207,"EPHEMERIS_TYPE":0,"CLASSIFICATION_TYPE":"U","NORAD_CAT_ID":66843,"ELEMENT_SET_NO":999,"REV_AT_EPOCH":1611,"BSTAR":0.00074923265,"MEAN_MOTION_DOT":8.858e-5,"MEAN_MOTION_DDOT":0}]
